     3.04           N: GNSS NAV DATA    C: BDS              RINEX VERSION / TYPE
CHC Navigation      CHC Navigation      20230628 133754 UTC PGM / RUN BY / DATE 
     4                                                      LEAP SECONDS        
                                                            END OF HEADER       
C01 2023 06 20 07 00 00 8.873114129528D-04-1.340261235327D-12 0.000000000000D+00
     1.000000000000D+00 4.997343750000D+02 1.156298164460D-08-8.540415288177D-01
     1.635961234570D-05 4.765656776726D-04-1.692911610007D-05 6.493373903275D+03
     1.980000000000D+05 1.010484993458D-07-1.632621720082D+00-2.579763531685D-07
     8.049464764517D-02 5.230312500000D+02 5.964560716695D-01-1.049186559974D-08
     3.910877189447D-10 0.000000000000D+00 9.110000000000D+02 0.000000000000D+00
     2.000000000000D+00 0.000000000000D+00-5.100000000000D-09 0.000000000000D+00
     1.980000000000D+05 0.000000000000D+00 0.000000000000D+00 0.000000000000D+00
C02 2023 06 20 07 00 00 3.804320003837D-04-1.459907750245D-10 0.000000000000D+00
     1.000000000000D+00 6.001875000000D+02 1.168655822063D-08 9.856686143570D-01
     1.948373392224D-05 1.007654587738D-03-1.368299126625D-05 6.493406570435D+03
     1.980000000000D+05-3.823079168797D-07-1.648527084776D+00 7.729977369308D-08
     8.110461572708D-02 4.200937500000D+02-2.282412848845D+00-1.053758178972D-08
     5.582375385485D-10 0.000000000000D+00 9.110000000000D+02 0.000000000000D+00
     2.000000000000D+00 0.000000000000D+00 1.700000000000D-09 0.000000000000D+00
     1.980000000000D+05 0.000000000000D+00 0.000000000000D+00 0.000000000000D+00
C03 2023 06 20 07 00 00 9.049292420968D-04-1.561240026149D-11 0.000000000000D+00
     1.000000000000D+00 5.389843750000D+02 1.168655822063D-08 1.132861212628D+00
     1.743435859680D-05 8.280406473204D-04-1.630093902349D-05 6.493398670197D+03
     1.980000000000D+05-3.585591912270D-07-1.601342031420D+00-4.777684807777D-07
     7.335942124578D-02 5.028593750000D+02-2.013887061245D+00-1.052008106075D-08
     5.039495629507D-10 0.000000000000D+00 9.110000000000D+02 0.000000000000D+00
     2.000000000000D+00 0.000000000000D+00 2.300000000000D-09 0.000000000000D+00
     1.980000000000D+05 0.000000000000D+00 0.000000000000D+00 0.000000000000D+00
C04 2023 06 20 07 00 00 1.932603772730D-04 1.376534441988D-10 0.000000000000D+00
     1.000000000000D+00 2.392968750000D+02 1.168655822063D-08-5.502400640273D-01
     7.902272045612D-06 2.626556670293D-04-2.188934013247D-05 6.493422847748D+03
     1.980000000000D+05 1.844018697739D-07-1.432118148738D+00-3.045424818993D-07
     7.486726700218D-02 6.737343750000D+02 3.641250424696D-01-1.058079787556D-08
     2.321525272275D-10 0.000000000000D+00 9.110000000000D+02 0.000000000000D+00
     2.000000000000D+00 0.000000000000D+00 6.000000000000D-09 0.000000000000D+00
     1.980000000000D+05 0.000000000000D+00 0.000000000000D+00 0.000000000000D+00
C05 2023 06 20 07 00 00-7.954150205478D-04-5.190958773937D-11 0.000000000000D+00
     1.000000000000D+00 5.148750000000D+02 1.168655822063D-08 1.428800401215D+00
     1.669861376286D-05 2.491881605238D-04-1.486111432314D-05 6.493436464310D+03
     1.980000000000D+05-7.958151400089D-07-1.564338109624D+00-1.945067197084D-06
     7.409927304644D-02 4.514375000000D+02 3.030091565511D+00-1.063079995835D-08
    -4.943063041274D-10 0.000000000000D+00 9.110000000000D+02 0.000000000000D+00
     2.000000000000D+00 0.000000000000D+00 4.000000000000D-10 0.000000000000D+00
     1.980000000000D+05 0.000000000000D+00 0.000000000000D+00 0.000000000000D+00
C06 2023 06 20 07 00 00-1.747839851305D-04 6.642686400937D-12 2.710505431214D-20
     6.000000000000D+00 2.995312500000D+01 1.761501945055D-09 2.060148052156D+00
     1.351814717054D-06 3.752878052183D-03 5.709473043680D-06 6.492967460632D+03
     1.980000000000D+05 6.519258022308D-08-1.625028012231D+00 1.979060471058D-07
     9.454922654680D-01 4.826562500000D+01-2.958970226061D+00-1.837576542439D-09
     8.275344701323D-10 0.000000000000D+00 9.110000000000D+02 0.000000000000D+00
     2.000000000000D+00 0.000000000000D+00 8.900000000000D-09 0.000000000000D+00
     1.980000000000D+05 5.000000000000D+00 0.000000000000D+00 0.000000000000D+00
C07 2023 06 20 07 00 00-1.997310901061D-04-5.785594225927D-11 0.000000000000D+00
     1.000000000000D+00 5.854062500000D+02 8.507497228551D-10-8.712009537024D-02
     1.858128234744D-05 2.755544730462D-03 2.012820914388D-05 6.493920885086D+03
     1.980000000000D+05-5.867332220078D-08 3.358048546372D-01-1.997686922550D-07
     8.655132072077D-01-4.195468750000D+02-2.818173802605D+00-1.490776382534D-09
    -7.900329080417D-10 0.000000000000D+00 9.110000000000D+02 0.000000000000D+00
     2.000000000000D+00 0.000000000000D+00 1.510000000000D-08 0.000000000000D+00
     1.980000000000D+05 0.000000000000D+00 0.000000000000D+00 0.000000000000D+00
C08 2023 06 20 07 00 00 4.540813388303D-04-1.116529091405D-11 0.000000000000D+00
     1.000000000000D+00-6.756406250000D+02 6.103825677411D-10-1.856871458150D+00
    -2.184044569731D-05 2.278909203596D-03-5.428679287434D-06 6.493746532440D+03
     1.980000000000D+05-3.180466592312D-07 2.525726153284D+00 2.235174179077D-07
     1.061895507182D+00 4.439843750000D+02 3.036412847697D+00-2.222235422168D-09
    -4.800199947595D-10 0.000000000000D+00 9.110000000000D+02 0.000000000000D+00
     2.000000000000D+00 0.000000000000D+00 1.150000000000D-08 0.000000000000D+00
     1.980000000000D+05 0.000000000000D+00 0.000000000000D+00 0.000000000000D+00
C09 2023 06 20 07 00 00 5.130358040333D-04-4.522160423903D-11 0.000000000000D+00
     5.000000000000D+00 1.446875000000D+01 1.757573209979D-09 1.099417988086D+00
     6.756745278835D-07 1.106430008076D-02 5.085021257401D-06 6.493002260208D+03
     1.980000000000D+05 9.546056389809D-08-1.580869553517D+00 2.034939825535D-07
     9.502345675067D-01 6.896875000000D+01-2.300389102817D+00-1.886864309758D-09
     7.378878788491D-10 0.000000000000D+00 9.110000000000D+02 0.000000000000D+00
     2.000000000000D+00 0.000000000000D+00 7.400000000000D-09 0.000000000000D+00
     1.980000000000D+05 4.000000000000D+00 0.000000000000D+00 0.000000000000D+00
C10 2023 06 20 07 00 00-9.104271885008D-05-1.087219203555D-11 0.000000000000D+00
     1.000000000000D+00 5.526250000000D+02 8.718220291726D-10-6.185227177367D-01
     1.745577901602D-05 9.139561560005D-03 2.029258757830D-05 6.493068325043D+03
     1.980000000000D+05-1.131556928158D-07 3.298966932014D-01-1.913867890835D-07
     8.676699624624D-01-4.124218750000D+02-2.479626361317D+00-1.525777840486D-09
    -7.871756461682D-10 0.000000000000D+00 9.110000000000D+02 0.000000000000D+00
     2.000000000000D+00 0.000000000000D+00 6.500000000000D-09 0.000000000000D+00
     1.980000000000D+05 0.000000000000D+00 0.000000000000D+00 0.000000000000D+00
C13 2023 06 20 07 00 00 2.998413983732D-04 7.498890397528D-12 0.000000000000D+00
     1.000000000000D+00-6.872812500000D+02 8.514640383235D-10-2.827229087040D+00
    -2.200575545430D-05 4.472360247746D-03-8.421950042248D-06 6.492904529572D+03
     1.980000000000D+05-1.830048859119D-07 2.497905910390D+00 3.823079168797D-07
     1.023716708561D+00 5.254062500000D+02-2.466825364378D+00-2.344383367263D-09
    -3.775157250453D-10 0.000000000000D+00 9.110000000000D+02 0.000000000000D+00
     2.000000000000D+00 0.000000000000D+00-9.400000000000D-09 0.000000000000D+00
     1.980000000000D+05 0.000000000000D+00 0.000000000000D+00 0.000000000000D+00
C16 2023 06 20 07 00 00 3.651063889265D-05-1.422328921308D-11-2.669847849746D-18
     6.000000000000D+00 2.081250000000D+01 1.666497987759D-09 1.398291307577D+00
     1.085922122002D-06 6.056606653146D-03 5.919020622969D-06 6.493764881134D+03
     1.980000000000D+05 3.259629011154D-08-1.631409682213D+00 2.128072082996D-07
     9.607121945248D-01 4.896875000000D+01-2.252131114621D+00-1.776502569891D-09
     8.293202588033D-10 0.000000000000D+00 9.110000000000D+02 0.000000000000D+00
     2.000000000000D+00 0.000000000000D+00-2.700000000000D-09 0.000000000000D+00
     1.980000000000D+05 5.000000000000D+00 0.000000000000D+00 0.000000000000D+00
C27 2023 06 20 07 00 00 1.578023657203D-04 5.602629471468D-12 0.000000000000D+00
     1.000000000000D+00 1.465781250000D+02 3.684082028233D-09 6.730487218094D-01
     7.138587534428D-06 7.296917028725D-04 2.680812031031D-06 5.282620893478D+03
     1.980000000000D+05 7.450580596924D-09 1.293463835263D+00-9.825453162193D-08
     9.625232402936D-01 3.122656250000D+02 1.329476357958D+00-6.915288049505D-09
     4.393040130612D-11 0.000000000000D+00 9.110000000000D+02 0.000000000000D+00
     2.000000000000D+00 0.000000000000D+00-3.500000000000D-09 0.000000000000D+00
     1.980000000000D+05 1.000000000000D+00 0.000000000000D+00 0.000000000000D+00
C28 2023 06 20 07 00 00 1.172849442810D-04 4.279243626115D-12 0.000000000000D+00
     1.000000000000D+00 1.355312500000D+02 3.718726328450D-09-2.348305607897D-01
     6.464309990406D-06 9.271188173443D-05 2.025160938501D-06 5.282638916016D+03
     1.980000000000D+05 5.960464477539D-08 1.293243331084D+00-1.257285475731D-08
     9.624018634435D-01 3.245468750000D+02 2.967627737218D+00-7.000648747977D-09
     3.535861568541D-11 0.000000000000D+00 9.110000000000D+02 0.000000000000D+00
     2.000000000000D+00 0.000000000000D+00-3.600000000000D-09 0.000000000000D+00
     1.980000000000D+05 1.000000000000D+00 0.000000000000D+00 0.000000000000D+00
